format  = 'OEF2.0'       ! file format
rectype = 'ML'           ! record type (1L/ML)
refsys  = ECLM J2000     ! default reference system
END_OF_HEADER
! Gauss(wN)
fink_fat/test/call_orbfit/K21E00A
! Keplerian elements: a, e, i, long. node, arg. peric., mean anomaly
 KEP   1.5833993623527698E+00 0.613559993695898   5.9440877456670 343.7960539272898 270.1931234374459 333.9557366497585
 MJD     59274.310893373 TDT
 MAG   0.000  0.000
! Non-grav parameters: model used, actual number in use, dimension
 LSP   0  0    6
